[{"OBJECT_NAME":"CONTINUUM-1","OBJECT_ID":"2023-001AN","EPOCH":"2026-03-09T23:17:35.458656","MEAN_MOTION":15.27981258,"ECCENTRICITY":0.00109493,"INCLINATION":97.3456,"RA_OF_ASC_NODE":133.3964,"ARG_OF_PERICENTER":60.1976,"MEAN_ANOMALY":300.0351,"EPHEMERIS_TYPE":0,"CLASSIFICATION_TYPE":"U","NORAD_CAT_ID":55045,"ELEMENT_SET_NO":999,"REV_AT_EPOCH":17709,"BSTAR":0.00052859897,"MEAN_MOTION_DOT":0.00014395,"MEAN_MOTION_DDOT":0},{"OBJECT_NAME":"STARLINK-33555","OBJECT_ID":"2024-220S","EPOCH":"2026-03-09T09:20:26.941344","MEAN_MOTION":15.27602636,"ECCENTRICITY":0.00014517,"INCLINATION":42.9997,"RA_OF_ASC_NODE":207.3737,"ARG_OF_PERICENTER":264.8073,"MEAN_ANOMALY":95.2613,"EPHEMERIS_TYPE":0,"CLASSIFICATION_TYPE":"U","NORAD_CAT_ID":62104,"ELEMENT_SET_NO":999,"REV_AT_EPOCH":7311,"BSTAR":0.0013058826,"MEAN_MOTION_DOT":0.00035873,"MEAN_MOTION_DDOT":0}]
